GLOBALSTAR M075         
1 37192U 10054E   25343.24319781 -.00000090  00000+0  77368-4 0  9998
2 37192  51.9967   8.5289 0000321 104.3510 333.5894 12.62270283697957
GLOBALSTAR M073         
1 37193U 10054F   25343.15022175 -.00000076  00000+0  15695-3 0  9995
2 37193  52.0069 282.7683 0000700  36.3111 336.7951 12.62264971699935
GLOBALSTAR M083         
1 37739U 11033A   25343.11337374 -.00000075  00000+0  15806-3 0  9998
2 37739  51.9849 231.3693 0000824  58.1907  89.3664 12.62265437668945
GLOBALSTAR M088         
1 37740U 11033B   25342.76088655 -.00000109  00000+0 -27343-4 0  9994
2 37740  52.0192 138.4071 0001081 105.3970 358.8170 12.62271005664443
GLOBALSTAR M091         
1 37741U 11033C   25343.10575200 -.00000101  00000+0  17126-4 0  9990
2 37741  51.9994 100.6046 0000774 125.2143  46.2163 12.62262337665276
GLOBALSTAR M085         
1 37742U 11033D   25343.13674743 -.00000079  00000+0  13870-3 0  9991
2 37742  52.0146  51.6361 0000428 150.3815 222.6693 12.62267192665793
GLOBALSTAR M081         
1 37743U 11033E   25343.16425794 -.00000079  00000+0  13612-3 0  9999
2 37743  51.9974  54.2033 0000385 120.0833 258.5831 12.62270756665941
GLOBALSTAR M089         
1 37744U 11033F   25343.04576493 -.00000076  00000+0  15253-3 0  9990
2 37744  51.9954   8.7601 0000554  79.6165 301.0170 12.62262072666774
